{"type": "FeatureCollection", "features": [ {"type": "Feature", "properties": {"norad_id": 58654, "name": "BEIDOU-3 M28 (C50)", "group": "beidou", "lat": 1.6032396056511298, "lon": -112.37683675483642, "alt_km": 21528.270835063227, "timestamp": "2025-12-09T11:33:55.065266+00:00", "meta": {"OBJECT_NAME": "BEIDOU-3 M28 (C50)", "OBJECT_ID": "2023-207A", "EPOCH": "2025-12-07T14:31:49.044864", "MEAN_MOTION": 1.86229593, "ECCENTRICITY": 0.0002234, "INCLINATION": 55.5801, "RA_OF_ASC_NODE": 68.7753, "ARG_OF_PERICENTER": 268.0479, "MEAN_ANOMALY": 91.9457, "EPHEMERIS_TYPE": 0, "CLASSIFICATION_TYPE": "U", "NORAD_CAT_ID": 58654, "ELEMENT_SET_NO": 999, "REV_AT_EPOCH": 1327, "BSTAR": 0, "MEAN_MOTION_DOT": -4.6e-07, "MEAN_MOTION_DDOT": 0}, "tle": {"line1": "1 58654U 23207A   25341.60542876 -.00000046  00000+0  00000+0 0  9994", "line2": "2 58654  55.5801  68.7753 0002234 268.0479  91.9457  1.86229593 13270"}}, "geometry": {"type": "Point", "coordinates": [-112.37683675483642, 1.6032396056511298]}}, {"type": "Feature", "properties": {"norad_id": 58655, "name": "BEIDOU-3 M26 (C48)", "group": "beidou", "lat": -36.61313361690368, "lon": 38.13115465231157, "alt_km": 21527.40099252509, "timestamp": "2025-12-09T11:33:55.065277+00:00", "meta": {"OBJECT_NAME": "BEIDOU-3 M26 (C48)", "OBJECT_ID": "2023-207B", "EPOCH": "2025-12-08T11:26:54.595392", "MEAN_MOTION": 1.8623113, "ECCENTRICITY": 0.00036549, "INCLINATION": 55.583, "RA_OF_ASC_NODE": 68.7321, "ARG_OF_PERICENTER": 253.8899, "MEAN_ANOMALY": 106.0912, "EPHEMERIS_TYPE": 0, "CLASSIFICATION_TYPE": "U", "NORAD_CAT_ID": 58655, "ELEMENT_SET_NO": 999, "REV_AT_EPOCH": 1327, "BSTAR": 0, "MEAN_MOTION_DOT": -4.7e-07, "MEAN_MOTION_DDOT": 0}, "tle": {"line1": "1 58655U 23207B   25342.47702078 -.00000047  00000+0  00000+0 0  9994", "line2": "2 58655  55.5830  68.7321 0003654 253.8899 106.0912  1.86231130 13273"}}, "geometry": {"type": "Point", "coordinates": [38.13115465231157, -36.61313361690368]}}, {"type": "Feature", "properties": {"norad_id": 61186, "name": "BEIDOU-3 M25 (C47)", "group": "beidou", "lat": 50.322383847733434, "lon": 7.598412171781196, "alt_km": 21532.92380382388, "timestamp": "2025-12-09T11:33:55.065289+00:00", "meta": {"OBJECT_NAME": "BEIDOU-3 M25 (C47)", "OBJECT_ID": "2024-168B", "EPOCH": "2025-12-08T20:08:08.310912", "MEAN_MOTION": 1.8622988, "ECCENTRICITY": 0.00054406, "INCLINATION": 54.6453, "RA_OF_ASC_NODE": 308.8544, "ARG_OF_PERICENTER": 295.846, "MEAN_ANOMALY": 63.7287, "EPHEMERIS_TYPE": 0, "CLASSIFICATION_TYPE": "U", "NORAD_CAT_ID": 61186, "ELEMENT_SET_NO": 999, "REV_AT_EPOCH": 823, "BSTAR": 0, "MEAN_MOTION_DOT": -7.5e-07, "MEAN_MOTION_DDOT": 0}, "tle": {"line1": "1 61186U 24168B   25342.83898508 -.00000075  00000+0  00000+0 0  9999", "line2": "2 61186  54.6453 308.8544 0005440 295.8460  63.7287  1.86229880  8230"}}, "geometry": {"type": "Point", "coordinates": [7.598412171781196, 50.322383847733434]}}, {"type": "Feature", "properties": {"norad_id": 61187, "name": "BEIDOU-3 M27 (C49)", "group": "beidou", "lat": -20.62073758531397, "lon": 144.28306247823394, "alt_km": 21534.999415311646, "timestamp": "2025-12-09T11:33:55.065300+00:00", "meta": {"OBJECT_NAME": "BEIDOU-3 M27 (C49)", "OBJECT_ID": "2024-168C", "EPOCH": "2025-12-09T05:48:09.836064", "MEAN_MOTION": 1.8623006, "ECCENTRICITY": 0.0002331, "INCLINATION": 54.6404, "RA_OF_ASC_NODE": 308.8241, "ARG_OF_PERICENTER": 334.1431, "MEAN_ANOMALY": 70.4249, "EPHEMERIS_TYPE": 0, "CLASSIFICATION_TYPE": "U", "NORAD_CAT_ID": 61187, "ELEMENT_SET_NO": 999, "REV_AT_EPOCH": 572, "BSTAR": 0, "MEAN_MOTION_DOT": -7.6e-07, "MEAN_MOTION_DDOT": 0}, "tle": {"line1": "1 61187U 24168C   25343.24178051 -.00000076  00000+0  00000+0 0  9991", "line2": "2 61187  54.6404 308.8241 0002331 334.1431  70.4249  1.86230060  5728"}}, "geometry": {"type": "Point", "coordinates": [144.28306247823394, -20.62073758531397]}}]}